{"type":"Topology","arcs":[[[549,52622],[-411,503],[-138,636],[182,147],[367,-1286]],[[39534,52482],[0,-16965]],[[39534,35517],[-1120,-581],[-1175,-533],[-958,-253],[-879,-336],[-1329,-140],[-1578,161],[-539,-119],[-1114,-774],[-484,-172],[-1248,-799],[-947,-226],[-607,-509],[-633,-1392],[-535,-714],[-353,-239],[-347,33],[-388,-247],[-344,261],[-712,29],[-1540,-301],[-220,350],[-1612,142],[-1450,-133],[-973,-273],[-514,82],[-873,-117],[-537,-377],[-454,-796],[-498,-263],[-866,-69],[-1866,-1510],[-1360,-331],[-1076,191],[-1540,136],[-1303,575],[-639,801],[-1102,662],[-368,-113],[-293,256],[-87,610],[51,1597],[460,-382],[436,10],[384,324],[412,1008],[-158,1568],[219,295],[74,2026],[-97,576],[-599,1168],[-394,1015],[-288,459],[-243,737],[-205,1026],[-129,1474],[42,858],[-251,866],[-561,808],[-224,980],[-914,1377],[-78,310],[-86,1288],[-173,588],[-783,1488],[-925,1282],[-250,525],[388,405],[473,-1349],[374,-110],[252,281],[40,502],[-647,696],[-186,597],[-290,551],[354,262],[426,-612],[-52,-777],[182,-203],[280,394],[154,-689],[363,-402],[308,310],[-4,1305],[-544,914],[-790,1692],[-250,847],[-372,766],[9,904],[323,1190],[501,937],[93,1176],[-66,629],[-209,521],[677,2082],[452,87],[-122,-809],[175,-423],[-55,-476],[580,422],[553,1189],[629,615],[744,314],[723,414],[1363,1375],[1709,1121],[1062,39],[656,-239],[682,234],[1266,797],[1357,337],[867,794],[1183,-128],[446,238],[1053,147],[583,201],[1092,527],[741,557],[388,471],[382,636],[338,864],[498,1011],[424,249],[871,1063],[-303,204],[-221,1250],[31,701],[248,530],[420,493],[708,544],[483,1058],[132,-12],[421,-1271],[304,-517],[289,-763],[348,-575],[203,792],[-52,409],[190,177],[332,-309],[185,621],[-236,151],[-707,1124],[223,59],[160,381],[-97,354],[299,95],[320,-566],[251,284],[414,25],[419,-327],[379,158],[-163,394],[114,296],[350,-29],[-480,1059],[142,788],[300,-8],[464,629],[767,-468],[25,404],[-402,-10],[-172,445],[454,406],[404,-62],[411,-222],[69,310],[-345,212],[-159,685],[385,467],[247,3],[602,504],[340,-242],[75,-382],[419,306],[-10,367],[233,767],[362,-148],[355,431],[409,-423],[518,613],[-12,497],[313,132],[481,-368],[477,-200],[933,-776],[527,-864],[766,-794],[-60,-869],[743,761],[388,20],[901,-267]],[[39534,85640],[0,-33158]],[[39534,85640],[579,-624],[73,622],[470,-184],[266,-340],[172,585],[286,183],[-366,424],[8,261],[-563,498],[198,533],[615,696],[318,1213],[243,212],[486,159],[304,435],[-306,468],[81,560],[368,222],[201,581],[535,122],[13,643],[677,-275],[-60,466],[367,72],[55,457],[428,35],[536,-295],[708,-4],[397,138],[432,-146],[465,282],[292,-158],[520,384],[115,224],[-2,594],[109,557],[-488,469],[-485,71],[-355,-99],[-790,684],[368,270],[580,-370],[159,301],[724,-486],[308,-413],[429,341],[412,-184],[393,-753],[420,-67],[435,-262],[912,-48],[817,-523],[740,-158],[472,227],[305,-352],[430,-271],[463,-84],[330,276],[482,204],[589,458],[248,-256],[-459,-473],[102,-268],[476,267],[174,-118],[180,-688],[439,-34],[167,382],[-144,519],[426,537],[238,-19],[170,-524],[270,-277],[437,-51],[123,-317],[-1008,-1294],[141,-655],[-328,-659],[-409,260],[-902,-496],[5,-945],[148,-562],[-261,-1022],[-341,-398],[-833,-1405],[308,-721],[741,-476],[916,-725],[212,-497],[717,-407],[298,64],[-16,-446],[213,-177],[533,48],[731,-561],[993,-496],[734,-962]],[[61643,80619],[-1,-28137]],[[61642,52482],[-22108,0]],[[59018,87701],[-97,-339],[-601,36],[-704,155],[158,305],[-7,779],[567,563],[366,-496],[-145,-686],[102,-253],[361,-64]],[[43410,94977],[-190,-294],[-455,191],[-457,-157],[-146,428],[309,67],[-110,539],[458,418],[294,-1020],[297,-172]],[[45604,96033],[161,-162],[-606,-816],[-838,-642],[-752,548],[-326,371],[-219,513],[-133,688],[142,95],[472,-575],[328,-25],[395,224],[270,-75],[602,431],[504,-575]],[[48355,97181],[89,-511],[-333,16],[-24,377],[268,118]],[[61642,52482],[7369,0],[0,-8939]],[[69011,43543],[58,-15030]],[[69069,28513],[-141,113],[-5,-12116]],[[68923,16510],[-833,128],[-581,393],[-438,759],[-1051,1180],[-113,555],[292,1185],[-315,866],[-443,819],[-746,802],[-509,411],[345,496],[361,286],[-326,237],[-681,-422],[-966,-457],[-829,89],[529,855],[273,897],[-52,777],[-984,1769],[-418,-852],[-110,-809],[-449,-1238],[-570,35],[-774,-313],[-641,-10],[321,965],[926,7],[250,940],[-83,653],[86,649],[384,899],[691,835],[-195,1127],[344,318],[-195,964],[-300,-157],[-272,-461],[-584,-643],[-503,-1298],[-1479,-796],[-503,-398],[-760,-1188],[-566,-691],[264,-843],[-506,239],[-356,-227],[-409,540],[-615,532],[539,-3],[-650,2009],[-729,835],[-240,888],[-450,411],[-753,76],[-314,553],[-179,687],[311,54],[17,542],[-747,408],[-352,426],[-578,256],[-833,-3],[-1117,678],[-1066,-190],[-267,39],[-1213,926],[-805,440],[-613,157],[-886,-322],[-1605,74],[-2314,-241],[-456,-97]],[[61462,23499],[478,-377],[-274,-164],[-433,118],[-404,-89],[-199,-385],[-348,-142],[-587,275],[-151,-169],[-965,18],[-527,425],[241,422],[1113,253],[595,212],[482,-37],[163,-398],[816,38]],[[61643,80619],[595,-484],[641,-212],[295,34],[944,-362],[246,-341],[340,-938],[472,-155],[611,-477],[850,-482],[428,-5],[740,238],[785,626],[333,1191],[622,1098],[473,1718],[-46,491],[144,892],[427,1635],[-252,1748],[175,945],[-279,674],[-20,385],[151,726],[273,878],[-77,941],[413,491],[363,116],[-191,480],[-428,260],[27,418],[288,807],[358,548],[460,1856],[72,974],[389,185],[319,527],[365,-122],[-129,-376],[419,-405],[279,-883],[88,-1533],[285,-291],[468,-106],[-183,-641],[14,-399],[353,-280],[362,-722],[272,-1355],[43,-623],[140,-417],[-94,-886],[233,-664],[278,-1147],[505,-340],[609,480],[646,209],[430,-777],[1572,-1343],[-89,-460],[102,-684],[-53,-445],[255,-1205],[203,-523],[-79,-1042],[304,-652],[504,-759],[386,-97],[-25,-470],[364,-927],[186,-757],[-230,-1900],[469,-706],[271,-131],[-90,-857],[453,-707],[855,-468],[426,-61],[335,-408],[687,44],[411,-728],[385,-439],[425,-295],[406,-88],[702,-563],[575,-172],[390,-430],[308,-570],[-381,39],[-113,-335],[259,-463],[666,-672],[355,-489],[306,-1046],[306,-305],[15,-557],[333,-1467],[266,-544],[584,394],[330,429],[390,-622],[753,-554],[67,521],[255,-102],[225,-470],[47,-1790],[147,-838],[966,-1094],[650,-558],[467,-77],[520,-485],[558,-1181],[802,-611],[112,-481],[374,-709],[332,-215],[305,-471],[17,-764],[265,-542],[336,-279],[-199,-1013],[191,-2022],[-111,-631],[200,-626],[461,-1085],[170,-833],[148,-287]],[[99749,46089],[-328,-271],[-461,-67],[-186,-279],[-669,80],[-231,-94],[-636,280],[-197,-239],[-1097,-572],[252,-506],[-109,-505],[-647,-213],[-509,-30],[-395,-548],[-398,720],[-921,708],[-949,28],[-317,259],[-470,16],[-1160,-160],[-406,97],[-1057,-880],[-263,-369],[-19584,-1]],[[99177,56238],[166,-967],[-512,-1341],[-405,-114],[207,742],[-56,325],[371,366],[130,440],[-150,470],[249,79]],[[81972,75627],[157,-503],[-262,-151],[-293,472],[398,182]],[[65538,81098],[-70,-400],[-317,-393],[-666,-240],[8,345],[320,473],[725,215]],[[87038,4474],[-387,138],[-394,-581],[-33,-525],[-208,-407],[-24,-727],[162,-1015],[-479,-188],[-339,595],[374,275],[-555,246],[-408,-144],[-364,-528],[-36,-432],[-412,-178],[-500,-1003],[-429,31],[-370,277],[-889,-11],[-352,-103],[-167,805],[-424,98],[-474,733],[-300,213],[-539,1139],[-171,935],[97,629],[-449,575],[-682,1215],[-324,1305],[157,590],[267,183],[551,-194],[590,50],[1323,-759],[1218,-414],[631,63],[1021,447],[812,107],[330,-134],[410,467],[617,-83],[236,277],[605,-224],[190,-275],[48,-1200],[-55,-344],[29,-1712],[96,-212]],[[86817,10467],[-356,-484],[-529,738],[-126,545],[396,220],[437,-539],[178,-480]],[[76672,11404],[50,-502],[-260,-371],[-335,-125],[-148,644],[57,495],[341,470],[295,-611]],[[69069,28513],[1377,-442],[430,238],[974,-184],[529,-475],[130,-774],[357,-544],[419,528],[548,-279],[629,-124],[344,-442],[40,-733],[509,-594],[950,-600],[782,-601],[339,-520],[592,-547],[609,-56],[111,550],[298,179],[858,82],[383,-84],[558,-341],[985,-237],[624,189],[1045,-317],[642,191],[407,-99],[208,291],[872,46],[521,-268],[594,-2255],[4240,-2080]],[[90973,18211],[-327,-141],[-599,-543],[-656,-214],[-871,40],[-1674,-125],[-948,-309],[-602,-362],[-579,-487],[-1324,-1323],[-1035,-145],[-538,-211],[295,-332],[320,160],[42,-669],[-206,-240],[-593,834],[-549,-107],[-355,699],[-453,30],[-513,362],[356,422],[-163,447],[-450,18],[-249,-435],[-569,-349],[-119,467],[512,753],[-561,571],[-867,-529],[312,-396],[-1385,-751],[-712,-705],[-670,-364],[-768,232],[-353,290],[-596,194],[-560,384],[-657,237],[-386,-81],[-646,345],[-490,36],[-322,-346],[-417,72],[-517,571],[-608,299]],[[89650,24681],[-538,-160],[-241,-678],[44,-652],[-384,-173],[-143,426],[-241,106],[-54,639],[142,545],[680,492],[735,-545]],[[99749,46089],[148,-286],[-16,-873],[118,-416],[-30,-541],[-350,-583],[-280,-715],[-3,-615],[-184,-1179],[-593,-1999],[42,-1025],[-255,-1572],[-389,-1047],[-556,-773],[-35,-588],[-184,-584],[-547,-506],[-204,-443],[-864,-428],[-808,-1330],[-127,-519],[-344,-177],[76,-352],[-225,-985],[-666,-796],[-219,-602],[-221,-1172],[69,-303],[-254,-374],[-231,-210],[-109,-73],[-475,-1102],[-439,-743],[-325,-2136],[-252,-879],[64,-1230],[-108,-722]]],"transform":{"scale":[0.0004070921509215093,0.0003356110761107611],"translate":[112.90815299999998,-43.612471]},"objects":{"states":{"type":"GeometryCollection","geometries":[{"arcs":[[[0]],[[1,2,3]]],"type":"MultiPolygon","properties":{"name":"Western Australia"}},{"arcs":[[[-4,4,5,6]],[[7]],[[8]],[[9]],[[10]]],"type":"MultiPolygon","properties":{"name":"Northern Territory"}},{"arcs":[[[-2,-7,11,12,13,14]],[[15]]],"type":"MultiPolygon","properties":{"name":"South Australia"}},{"arcs":[[[-6,16,17,-12]],[[18]],[[19]],[[20]]],"type":"MultiPolygon","properties":{"name":"Queensland"}},{"arcs":[[[21]],[[22]],[[23]]],"type":"MultiPolygon","properties":{"name":"Tasmania"}},{"arcs":[[-14,24,25]],"type":"Polygon","properties":{"name":"Victoria"}},{"arcs":[[26]],"type":"Polygon","properties":{"name":"Australian Capital Territory"}},{"arcs":[[-13,-18,27,-25],[-27]],"type":"Polygon","properties":{"name":"New South Wales"}}]}}}